{
  "norad_id": 63575,
  "name": "STARLINK-33732",
  "history": [
    {
      "epoch": "2026-03-28T17:59:21.382656Z",
      "apogee_km": 483.92451982188413,
      "perigee_km": 481.97926389926306,
      "latitude_deg": -2.7721606220076305e-06,
      "longitude_deg": 118.20557358760483,
      "height_km": 482.93831533744714,
      "semi_major_axis_km": 6861.088891860573,
      "eccentricity": 0.00014176,
      "inclination_deg": 43.0012,
      "raan_deg": 214.2102,
      "arg_perigee_deg": 257.5532,
      "mean_anomaly_deg": 102.5161,
      "mean_motion_rev_day": 15.27612463
    },
    {
      "epoch": "2026-03-29T08:06:46.406304Z",
      "apogee_km": 483.40940255191344,
      "perigee_km": 482.6301123674011,
      "latitude_deg": -2.774259503342441e-06,
      "longitude_deg": -97.55222790799051,
      "height_km": 482.84405009474443,
      "semi_major_axis_km": 6861.1567574596575,
      "eccentricity": 5.679e-05,
      "inclination_deg": 43.0004,
      "raan_deg": 210.8867,
      "arg_perigee_deg": 262.8802,
      "mean_anomaly_deg": 97.1985,
      "mean_motion_rev_day": 15.27589798
    },
    {
      "epoch": "2026-03-30T13:55:45.245856Z",
      "apogee_km": 483.50177007031834,
      "perigee_km": 482.42430292058725,
      "latitude_deg": 5.314143925135821e-05,
      "longitude_deg": 166.96295417956213,
      "height_km": 482.61015924892126,
      "semi_major_axis_km": 6861.1000364954525,
      "eccentricity": 7.852e-05,
      "inclination_deg": 43.0002,
      "raan_deg": 203.8715,
      "arg_perigee_deg": 283.8601,
      "mean_anomaly_deg": 76.2164,
      "mean_motion_rev_day": 15.27608741
    },
    {
      "epoch": "2026-03-30T17:04:03.896544Z",
      "apogee_km": 483.86684244701337,
      "perigee_km": 482.120547462534,
      "latitude_deg": 1.0413634156066535e-05,
      "longitude_deg": 119.01690337084888,
      "height_km": 483.1028938398426,
      "semi_major_axis_km": 6861.130694954773,
      "eccentricity": 0.00012726,
      "inclination_deg": 43.0007,
      "raan_deg": 203.1321,
      "arg_perigee_deg": 247.6052,
      "mean_anomaly_deg": 112.4665,
      "mean_motion_rev_day": 15.27598502
    },
    {
      "epoch": "2026-03-31T15:02:14.882496Z",
      "apogee_km": 483.9185005686559,
      "perigee_km": 482.00562614979117,
      "latitude_deg": -1.105148754132599e-05,
      "longitude_deg": 143.39864262326415,
      "height_km": 483.00300689317186,
      "semi_major_axis_km": 6861.099063359224,
      "eccentricity": 0.0001394,
      "inclination_deg": 43.0021,
      "raan_deg": 197.9619,
      "arg_perigee_deg": 253.9709,
      "mean_anomaly_deg": 106.0989,
      "mean_motion_rev_day": 15.27609066
    }
  ]
}